CCSDS_OMM_VERS,COMMENT,CREATION_DATE,ORIGINATOR,OBJECT_NAME,OBJECT_ID,CENTER_NAME,REF_FRAME,TIME_SYSTEM,MEAN_ELEMENT_THEORY,EPOCH,MEAN_MOTION,ECCENTRICITY,INCLINATION,RA_OF_ASC_NODE,ARG_OF_PERICENTER,MEAN_ANOMALY,EPHEMERIS_TYPE,CLASSIFICATION_TYPE,NORAD_CAT_ID,ELEMENT_SET_NO,REV_AT_EPOCH,BSTAR,MEAN_MOTION_DOT,MEAN_MOTION_DDOT,SEMIMAJOR_AXIS,PERIOD,APOAPSIS,PERIAPSIS,OBJECT_TYPE,RCS_SIZE,COUNTRY_CODE,LAUNCH_DATE,SITE,DECAY_DATE,DECAYED,FILE,GP_ID,TLE_LINE0,TLE_LINE1,TLE_LINE2,height_km,latitude,longitude,velocity_kms,id
2.0,GENERATED VIA SPACE-TRACK.ORG API,2022-11-30T17:18:05,18 SPCS,STARLINK-1185,2020-006AV,EARTH,TEME,UTC,SGP4,2022-11-30T02:32:41.613216,15.06391211,0.0002208,53.0556,213.8057,45.6836,314.4334,0,U,45087,999,15682,0.00018672,2.5e-05,0.0,6925.375,95.593,548.77,545.711,PAYLOAD,LARGE,US,2020-01-29,AFETR,,0,3675646,219172587,0 STARLINK-1185,1 45087U 20006AV  22334.10603719  .00002500  00000-0  18672-3 0  9997,2 45087  53.0556 213.8057 0002208  45.6836 314.4334 15.06391211156823,548.010124001762,14.265132789216986,46.57530006775965,7.590019546064681,5eed7715096e5900069856f4
2.0,GENERATED VIA SPACE-TRACK.ORG API,2022-11-29T20:50:49,18 SPCS,STARLINK-1179,2020-006AT,EARTH,TEME,UTC,SGP4,2022-11-29T01:25:16.608864,15.06407684,0.0001688,53.0547,218.5101,66.8247,293.292,0,U,45085,999,15666,-6.1419e-05,-1.197e-05,0.0,6925.325,95.592,548.359,546.021,PAYLOAD,LARGE,US,2020-01-29,AFETR,,0,3673336,219069400,0 STARLINK-1179,1 45085U 20006AT  22333.05922001 -.00001197  00000-0 -61419-4 0  9997,2 45085  53.0547 218.5101 0001688  66.8247 293.2920 15.06407684156664,556.6447314122015,-28.374098070925665,96.58733166764057,7.582678145710675,5eed7715096e5900069856f5
2.0,GENERATED VIA SPACE-TRACK.ORG API,2022-11-30T17:18:05,18 SPCS,STARLINK-1231,2020-012AL,EARTH,TEME,UTC,SGP4,2022-11-30T08:04:25.065408,15.06396046,0.0001632,53.0562,352.7818,61.4224,298.6929,0,U,45212,999,15490,5.6866e-05,5.65e-06,0.0,6925.361,95.592,548.356,546.095,PAYLOAD,LARGE,US,2020-02-17,AFETR,,0,3675646,219171098,0 STARLINK-1231,1 45212U 20012AL  22334.33640122  .00000565  00000-0  56866-4 0  9995,2 45212  53.0562 352.7818 0001632  61.4224 298.6929 15.06396046154906,548.7845720762671,-6.453671241933866,12.694389654951678,7.588544226134218,5eed7715096e5900069856f6
2.0,GENERATED VIA SPACE-TRACK.ORG API,2022-11-30T17:18:05,18 SPCS,STARLINK-1147,2020-006BD,EARTH,TEME,UTC,SGP4,2022-11-30T08:48:11.146752,15.063869,0.0001794,53.056,212.62,50.4938,309.621,0,U,45095,999,15686,0.00010468,1.277e-05,0.0,6925.389,95.593,548.496,546.011,PAYLOAD,LARGE,US,2020-01-29,AFETR,,0,3675646,219171338,0 STARLINK-1147,1 45095U 20006BD  22334.36679568  .00001277  00000-0  10468-3 0  9994,2 45095  53.0560 212.6200 0001794  50.4938 309.6210 15.06386900156862,549.9520436210678,-5.827746173111842,61.90023569258553,7.587250067347197,5eed7715096e5900069856f7
2.0,GENERATED VIA SPACE-TRACK.ORG API,2022-11-30T03:22:20,18 SPCS,STARLINK-1190,2020-006AR,EARTH,TEME,UTC,SGP4,2022-11-29T19:28:03.632160,15.06398555,0.0001908,53.0552,255.1232,67.0051,293.1139,0,U,45083,999,15621,0.00013406,1.716e-05,0.0,6925.353,95.592,548.539,545.897,PAYLOAD,LARGE,US,2020-01-29,AFETR,,0,3673849,219108018,0 STARLINK-1190,1 45083U 20006AR  22333.81115315  .00001716  00000-0  13406-3 0  9998,2 45083  53.0552 255.1232 0001908  67.0051 293.1139 15.06398555156219,552.4891518923368,52.76929471319391,32.929476408210405,7.592529186957078,5eed7715096e5900069856f8
2.0,GENERATED VIA SPACE-TRACK.ORG API,2022-11-30T17:18:05,18 SPCS,STARLINK-1151,2020-006AP,EARTH,TEME,UTC,SGP4,2022-11-30T02:55:12.755424,15.06391814,0.0002081,53.0538,233.7136,47.2954,312.821,0,U,45081,999,15654,4.7148e-05,4.2e-06,0.0,6925.374,95.593,548.68,545.797,PAYLOAD,LARGE,US,2020-01-29,AFETR,,0,3675646,219171085,0 STARLINK-1151,1 45081U 20006AP  22334.12167541  .00000420  00000-0  47148-4 0  9991,2 45081  53.0538 233.7136 0002081  47.2954 312.8210 15.06391814156547,552.1034131020788,51.34579597666177,-33.23371811232779,7.592654765678721,5eed7715096e5900069856f9
2.0,GENERATED VIA SPACE-TRACK.ORG API,2022-11-30T17:18:05,18 SPCS,STARLINK-1161,2020-006AA,EARTH,TEME,UTC,SGP4,2022-11-30T00:37:11.222112,15.06390885,0.0001522,53.0542,234.0375,71.5198,288.5956,0,U,45068,999,15652,3.0527e-05,1.73e-06,0.0,6925.376,95.593,548.296,546.187,PAYLOAD,LARGE,US,2020-01-29,AFETR,,0,3675646,219172585,0 STARLINK-1161,1 45068U 20006AA  22334.02582433  .00000173  00000-0  30527-4 0  9994,2 45068  53.0542 234.0375 0001522  71.5198 288.5956 15.06390885156526,562.4043631166487,-42.43922596034272,120.55959660937047,7.579365974431026,5eed7715096e5900069856fa
2.0,GENERATED VIA SPACE-TRACK.ORG API,2022-11-30T17:18:05,18 SPCS,STARLINK-1159,2020-006P,EARTH,TEME,UTC,SGP4,2022-11-30T04:13:31.920960,15.06392304,0.0001776,53.0543,253.4963,55.5482,304.5674,0,U,45057,999,15627,3.3906e-05,2.23e-06,0.0,6925.372,95.593,548.467,546.007,PAYLOAD,LARGE,US,2020-01-29,AFETR,,0,3675646,219171583,0 STARLINK-1159,1 45057U 20006P   22334.17606390  .00000223  00000-0  33906-4 0  9997,2 45057  53.0543 253.4963 0001776  55.5482 304.5674 15.06392304156278,548.7379152591202,29.50693128661169,72.49999471497311,7.591579584136779,5eed7715096e5900069856fb
2.0,GENERATED VIA SPACE-TRACK.ORG API,2021-11-23T01:36:13,18 SPCS,STARLINK-1072,2020-001X,EARTH,TEME,UTC,SGP4,2021-11-22T23:31:43.052160,16.36428089,0.0007355,53.0327,120.9156,317.3591,138.9149,0,U,44935,999,10444,0.0025673,0.23454403,1.2356e-05,6553.459,87.997,180.144,170.503,PAYLOAD,LARGE,US,2020-01-07,AFETR,2021-11-23,1,3221641,190273841,0 STARLINK-1072,1 44935U 20001X   21326.98035940  .23454403  12356-4  25673-2 0  9991,2 44935  53.0327 120.9156 0007355 317.3591 138.9149 16.36428089104445,,,,,5eed7715096e5900069856fc
2.0,GENERATED VIA SPACE-TRACK.ORG API,2022-11-30T17:18:05,18 SPCS,STARLINK-1174,2020-006AH,EARTH,TEME,UTC,SGP4,2022-11-30T03:12:30.206880,15.06388072,0.0001641,53.0566,233.6862,63.3986,296.7171,0,U,45075,999,15654,0.00014472,1.874e-05,0.0,6925.385,95.593,548.387,546.114,PAYLOAD,LARGE,US,2020-01-29,AFETR,,0,3675646,219172833,0 STARLINK-1174,1 45075U 20006AH  22334.13368295  .00001874  00000-0  14472-3 0  9991,2 45075  53.0566 233.6862 0001641  63.3986 296.7171 15.06388072156549,546.7048545583293,9.54473129682198,-95.23377261419583,7.591026506279625,5eed7715096e5900069856fd
2.0,GENERATED VIA SPACE-TRACK.ORG API,2020-05-29T07:06:09,18 SPCS,STARLINK-1087,2020-001BD,EARTH,TEME,UTC,SGP4,2020-05-28T22:41:27.804480,16.43727123,0.0008979,52.9928,43.5355,226.1131,134.4631,0,U,44965,999,2327,0.0012102,0.34395127,1.2367e-05,6534.043,87.605,161.775,150.041,PAYLOAD,LARGE,US,2020-01-07,AFETR,2020-05-29,1,2755878,154713658,0 STARLINK-1087,1 44965U 20001BD  20149.94546070  .34395127  12367-4  12102-2 0  9997,2 44965  52.9928  43.5355 0008979 226.1131 134.4631 16.43727123 23271,,,,,5eed7715096e5900069856fe
2.0,GENERATED VIA SPACE-TRACK.ORG API,2022-11-30T17:18:05,18 SPCS,STARLINK-1130,2020-001U,EARTH,TEME,UTC,SGP4,2022-11-30T08:09:43.928064,15.06394129,0.0001814,53.0557,312.7555,62.8672,297.2502,0,U,44932,999,16091,-1.1617e-05,-4.55e-06,0.0,6925.367,95.593,548.488,545.975,PAYLOAD,LARGE,US,2020-01-07,AFETR,,0,3675646,219172572,0 STARLINK-1130,1 44932U 20001U   22334.34009176 -.00000455  00000-0 -11617-4 0  9995,2 44932  53.0557 312.7555 0001814  62.8672 297.2502 15.06394129160916,553.5429267950021,-22.209447619472172,-40.24139026050757,7.585019616002859,5eed7715096e5900069856ff
2.0,GENERATED VIA SPACE-TRACK.ORG API,2020-11-13T20:33:19,18 SPCS,STARLINK-1077,2020-001AY,EARTH,TEME,UTC,SGP4,2020-11-09T12:32:22.790400,16.31946065,0.0001129,52.9869,341.1938,151.1455,208.965,0,U,44960,999,4794,0.0019755,0.11152622,1.2127e-05,6565.452,88.238,188.058,186.575,PAYLOAD,LARGE,US,2020-01-07,AFETR,2020-11-09,1,2875088,165437724,0 STARLINK-1077,1 44960U 20001AY  20314.52248600 +.11152622 +12127-4 +19755-2 0  9999,2 44960 052.9869 341.1938 0001129 151.1455 208.9650 16.31946065047943,,,,,5eed7715096e590006985700
2.0,GENERATED VIA SPACE-TRACK.ORG API,2022-11-30T17:18:05,18 SPCS,STARLINK-1133,2020-006W,EARTH,TEME,UTC,SGP4,2022-11-29T23:50:47.859936,15.06390421,0.0001461,53.0537,234.3163,64.3719,295.7421,0,U,45064,999,15652,5.248e-05,5e-06,0.0,6925.378,95.593,548.255,546.231,PAYLOAD,LARGE,US,2020-01-29,AFETR,,0,3675646,219172084,0 STARLINK-1133,1 45064U 20006W   22333.99360949  .00000500  00000-0  52480-4 0  9997,2 45064  53.0537 234.3163 0001461  64.3719 295.7421 15.06390421156528,549.68049547396,39.192349165494434,-64.87774851814375,7.592580193661682,5eed7715096e590006985701
2.0,GENERATED VIA SPACE-TRACK.ORG API,2022-11-30T17:18:05,18 SPCS,STARLINK-1162,2020-006Q,EARTH,TEME,UTC,SGP4,2022-11-30T12:00:38.414304,15.06396447,0.0001941,53.0539,252.0434,56.9061,303.2114,0,U,45058,999,15632,0.00028132,3.911e-05,0.0,6925.359,95.592,548.569,545.88,PAYLOAD,LARGE,US,2020-01-29,AFETR,,0,3675646,219171334,0 STARLINK-1162,1 45058U 20006Q   22334.50044461  .00003911  00000-0  28132-3 0  9991,2 45058  53.0539 252.0434 0001941  56.9061 303.2114 15.06396447156327,549.085407345462,-1.6781337549552025,98.80169522205551,7.588060181970892,5eed7715096e590006985702
2.0,GENERATED VIA SPACE-TRACK.ORG API,2022-11-30T17:18:05,18 SPCS,STARLINK-1116,2020-001AK,EARTH,TEME,UTC,SGP4,2022-11-30T07:03:22.959072,15.0639559,0.0002063,53.0558,292.9625,52.649,307.4686,0,U,44947,999,15995,5.4117e-05,5.24e-06,0.0,6925.362,95.592,548.656,545.798,PAYLOAD,LARGE,US,2020-01-07,AFETR,,0,3675646,219172821,0 STARLINK-1116,1 44947U 20001AK  22334.29401573  .00000524  00000-0  54117-4 0  9999,2 44947  53.0558 292.9625 0002063  52.6490 307.4686 15.06395590159954,558.7504101952381,-32.576322923744044,166.08528016088184,7.581215739815551,5eed7715096e590006985703
